{
  "type": "Feature",
  "properties": {
    "name": "AuDrive Carlton Route 9 \u2014 Stage 1",
    "source": "https://audrive.net/api/v1/routes/9/navigation",
    "stage": 1,
    "geometry_precision": 6
  },
  "geometry": {
    "type": "LineString",
    "coordinates": [
      [
        144.967291,
        -37.793312
      ],
      [
        144.967305,
        -37.793231
      ],
      [
        144.96724,
        -37.793232
      ],
      [
        144.967181,
        -37.793237
      ],
      [
        144.967105,
        -37.793254
      ],
      [
        144.967059,
        -37.793273
      ],
      [
        144.967016,
        -37.793311
      ],
      [
        144.967,
        -37.793347
      ],
      [
        144.966989,
        -37.793388
      ],
      [
        144.966964,
        -37.793511
      ],
      [
        144.966954,
        -37.793568
      ],
      [
        144.967101,
        -37.793586
      ],
      [
        144.967537,
        -37.793627
      ],
      [
        144.96769,
        -37.793642
      ],
      [
        144.967767,
        -37.793647
      ],
      [
        144.967852,
        -37.793652
      ],
      [
        144.967993,
        -37.793668
      ],
      [
        144.968021,
        -37.793671
      ],
      [
        144.968073,
        -37.793682
      ],
      [
        144.968093,
        -37.793581
      ],
      [
        144.968168,
        -37.793153
      ],
      [
        144.968176,
        -37.793056
      ],
      [
        144.968179,
        -37.793027
      ],
      [
        144.968184,
        -37.792982
      ],
      [
        144.968188,
        -37.792939
      ],
      [
        144.968203,
        -37.792841
      ],
      [
        144.968248,
        -37.792625
      ],
      [
        144.968254,
        -37.792595
      ],
      [
        144.968272,
        -37.792476
      ],
      [
        144.968307,
        -37.792313
      ],
      [
        144.968325,
        -37.792237
      ],
      [
        144.968343,
        -37.792127
      ],
      [
        144.968418,
        -37.791687
      ],
      [
        144.968566,
        -37.790834
      ],
      [
        144.968706,
        -37.790003
      ],
      [
        144.96872,
        -37.789919
      ],
      [
        144.968729,
        -37.789835
      ],
      [
        144.968741,
        -37.789728
      ],
      [
        144.968757,
        -37.789635
      ],
      [
        144.968788,
        -37.789501
      ],
      [
        144.968795,
        -37.789456
      ],
      [
        144.968802,
        -37.789413
      ],
      [
        144.968804,
        -37.789403
      ],
      [
        144.968812,
        -37.789369
      ],
      [
        144.968827,
        -37.7893
      ],
      [
        144.968851,
        -37.789186
      ],
      [
        144.96898,
        -37.78846
      ],
      [
        144.969029,
        -37.788465
      ],
      [
        144.969047,
        -37.788467
      ],
      [
        144.969068,
        -37.78847
      ],
      [
        144.969118,
        -37.788475
      ],
      [
        144.969198,
        -37.788484
      ],
      [
        144.969352,
        -37.788501
      ],
      [
        144.969451,
        -37.788512
      ],
      [
        144.969732,
        -37.788543
      ],
      [
        144.970027,
        -37.788575
      ],
      [
        144.97008,
        -37.788581
      ],
      [
        144.970371,
        -37.788619
      ],
      [
        144.970447,
        -37.78863
      ],
      [
        144.970596,
        -37.788665
      ],
      [
        144.970584,
        -37.788734
      ],
      [
        144.970566,
        -37.78884
      ],
      [
        144.970472,
        -37.78939
      ],
      [
        144.970463,
        -37.789444
      ],
      [
        144.970457,
        -37.789478
      ],
      [
        144.97045,
        -37.78952
      ],
      [
        144.970445,
        -37.78955
      ],
      [
        144.970527,
        -37.789559
      ],
      [
        144.970814,
        -37.78959
      ],
      [
        144.971388,
        -37.789655
      ],
      [
        144.971706,
        -37.789689
      ],
      [
        144.971792,
        -37.789698
      ],
      [
        144.9718,
        -37.789652
      ],
      [
        144.971805,
        -37.789622
      ],
      [
        144.971835,
        -37.789462
      ],
      [
        144.971846,
        -37.789391
      ],
      [
        144.971924,
        -37.788945
      ],
      [
        144.971935,
        -37.788883
      ],
      [
        144.971937,
        -37.78887
      ],
      [
        144.971946,
        -37.788821
      ],
      [
        144.971953,
        -37.788779
      ],
      [
        144.971961,
        -37.78873
      ],
      [
        144.971963,
        -37.788719
      ],
      [
        144.971996,
        -37.788527
      ],
      [
        144.972091,
        -37.787982
      ],
      [
        144.972138,
        -37.787696
      ],
      [
        144.972142,
        -37.78767
      ],
      [
        144.97215,
        -37.787624
      ],
      [
        144.972159,
        -37.787557
      ],
      [
        144.972267,
        -37.787568
      ],
      [
        144.972363,
        -37.78758
      ],
      [
        144.972453,
        -37.787591
      ],
      [
        144.972592,
        -37.787623
      ],
      [
        144.972668,
        -37.787629
      ],
      [
        144.973024,
        -37.787681
      ],
      [
        144.973408,
        -37.787722
      ],
      [
        144.973804,
        -37.787765
      ],
      [
        144.974098,
        -37.787797
      ],
      [
        144.974437,
        -37.787834
      ],
      [
        144.974519,
        -37.787843
      ],
      [
        144.974673,
        -37.787859
      ],
      [
        144.974658,
        -37.787945
      ],
      [
        144.974516,
        -37.78875
      ]
    ]
  }
}
